IRIDIUM 7 [-]           
1 24793U 97020B   23234.11883686  .00000372  00000+0  12405-3 0  9994
2 24793  86.3922  95.4722 0002207  91.6488 268.4961 14.34869817376714
IRIDIUM 5 [-]           
1 24795U 97020D   23234.96087313  .00002629  00000+0  26727-3 0  9991
2 24795  86.3965  27.0818 0128897 343.5009  16.2036 14.84293003386662
IRIDIUM 4 [-]           
1 24796U 97020E   23234.52551111  .00000422  00000+0  13914-3 0  9999
2 24796  86.3914  92.6192 0002001  89.7685 270.3741 14.35773325377096
IRIDIUM 914 [-]         
1 24836U 97030A   23234.17080342  .00000434  00000+0  13291-3 0  9990
2 24836  86.3905 103.3146 0000576 141.0325 219.0915 14.39565259373513
IRIDIUM 16 [-]          
1 24841U 97030F   23235.09880531  .00000461  00000+0  14745-3 0  9991
2 24841  86.4044 124.1289 0004322  85.3353 274.8338 14.37465481371821
IRIDIUM 911 [-]         
1 24842U 97030G   23235.06705396  .00000577  00000+0  15637-3 0  9993
2 24842  86.4469 123.5138 0015494 142.4162 217.8126 14.45967280379041
IRIDIUM 17 [-]          
1 24870U 97034B   23233.83461027  .00000542  00000+0  17797-3 0  9992
2 24870  86.4019 154.3042 0003574  62.8728 297.2833 14.36564463368027
IRIDIUM 920 [-]         
1 24871U 97034C   23235.10486405  .00000517  00000+0  15675-3 0  9997
2 24871  86.4006 134.5776 0013700 107.1097 253.1604 14.40280518371215
